{"type": "FeatureCollection", "features": [ {"type": "Feature", "properties": {"norad_id": 66347, "name": "STARLINK-35438", "group": "last-30-days", "lat": 29.49608367832028, "lon": 62.644723944372, "alt_km": 410.52919867163837, "timestamp": "2025-12-05T18:53:12.094910+00:00", "meta": {"OBJECT_NAME": "STARLINK-35438", "OBJECT_ID": "2025-253AE", "EPOCH": "2025-12-05T04:46:32.982240", "MEAN_MOTION": 15.50631575, "ECCENTRICITY": 0.0001736, "INCLINATION": 43.0007, "RA_OF_ASC_NODE": 28.7095, "ARG_OF_PERICENTER": 268.9819, "MEAN_ANOMALY": 91.0843, "EPHEMERIS_TYPE": 0, "CLASSIFICATION_TYPE": "U", "NORAD_CAT_ID": 66347, "ELEMENT_SET_NO": 999, "REV_AT_EPOCH": 576, "BSTAR": 0.002267896, "MEAN_MOTION_DOT": 0.00135282, "MEAN_MOTION_DDOT": 0}, "tle": {"line1": "1 66347U 25253AE  25339.19899285  .00135282  00000+0  22679-2 0  9994", "line2": "2 66347  43.0007  28.7095 0001736 268.9819  91.0843 15.50631575  5764"}}, "geometry": {"type": "Point", "coordinates": [62.644723944372, 29.49608367832028]}}, {"type": "Feature", "properties": {"norad_id": 66348, "name": "STARLINK-35849", "group": "last-30-days", "lat": -51.78263630985841, "lon": -122.34776756795146, "alt_km": 414.18658040230457, "timestamp": "2025-12-05T18:53:12.094921+00:00", "meta": {"OBJECT_NAME": "STARLINK-35849", "OBJECT_ID": "2025-254A", "EPOCH": "2025-12-05T06:00:02.000160", "MEAN_MOTION": 15.55250692, "ECCENTRICITY": 0.00014736, "INCLINATION": 53.1592, "RA_OF_ASC_NODE": 312.4443, "ARG_OF_PERICENTER": 78.5893, "MEAN_ANOMALY": 76.8197, "EPHEMERIS_TYPE": 0, "CLASSIFICATION_TYPE": "U", "NORAD_CAT_ID": 66348, "ELEMENT_SET_NO": 999, "REV_AT_EPOCH": 571, "BSTAR": -0.034286765, "MEAN_MOTION_DOT": -0.02101434, "MEAN_MOTION_DDOT": 0}, "tle": {"line1": "1 66348U 25254A   25339.25002315 -.02101434  00000+0 -34287-1 0  9996", "line2": "2 66348  53.1592 312.4443 0001473  78.5893  76.8197 15.55250692  5711"}}, "geometry": {"type": "Point", "coordinates": [-122.34776756795146, -51.78263630985841]}}, {"type": "Feature", "properties": {"norad_id": 66349, "name": "STARLINK-35848", "group": "last-30-days", "lat": -51.27724907366015, "lon": -119.38656486311613, "alt_km": 414.18528393984434, "timestamp": "2025-12-05T18:53:12.094932+00:00", "meta": {"OBJECT_NAME": "STARLINK-35848", "OBJECT_ID": "2025-254B", "EPOCH": "2025-12-05T06:00:02.000160", "MEAN_MOTION": 15.55249664, "ECCENTRICITY": 0.00015087, "INCLINATION": 53.1591, "RA_OF_ASC_NODE": 312.44, "ARG_OF_PERICENTER": 78.9605, "MEAN_ANOMALY": 78.3662, "EPHEMERIS_TYPE": 0, "CLASSIFICATION_TYPE": "U", "NORAD_CAT_ID": 66349, "ELEMENT_SET_NO": 999, "REV_AT_EPOCH": 571, "BSTAR": -0.034270734, "MEAN_MOTION_DOT": -0.02100512, "MEAN_MOTION_DDOT": 0}, "tle": {"line1": "1 66349U 25254B   25339.25002315 -.02100512  00000+0 -34271-1 0  9996", "line2": "2 66349  53.1591 312.4400 0001508  78.9605  78.3662 15.55249664  5719"}}, "geometry": {"type": "Point", "coordinates": [-119.38656486311613, -51.27724907366015]}}, {"type": "Feature", "properties": {"norad_id": 66350, "name": "STARLINK-35829", "group": "last-30-days", "lat": -50.69861630114693, "lon": -116.49276245986441, "alt_km": 414.2656515214976, "timestamp": "2025-12-05T18:53:12.094942+00:00", "meta": {"OBJECT_NAME": "STARLINK-35829", "OBJECT_ID": "2025-254C", "EPOCH": "2025-12-05T06:00:02.000160", "MEAN_MOTION": 15.55248919, "ECCENTRICITY": 0.00016458, "INCLINATION": 53.1593, "RA_OF_ASC_NODE": 312.4358, "ARG_OF_PERICENTER": 84.7683, "MEAN_ANOMALY": 74.4711, "EPHEMERIS_TYPE": 0, "CLASSIFICATION_TYPE": "U", "NORAD_CAT_ID": 66350, "ELEMENT_SET_NO": 999, "REV_AT_EPOCH": 571, "BSTAR": -0.034187628, "MEAN_MOTION_DOT": -0.0209602, "MEAN_MOTION_DDOT": 0}, "tle": {"line1": "1 66350U 25254C   25339.25002315 -.02096020  00000+0 -34188-1 0  9993", "line2": "2 66350  53.1593 312.4358 0001645  84.7683  74.4711 15.55248919  5712"}}, "geometry": {"type": "Point", "coordinates": [-116.49276245986441, -50.69861630114693]}}, {"type": "Feature", "properties": {"norad_id": 66351, "name": "STARLINK-35828", "group": "last-30-days", "lat": -50.04931539219671, "lon": -113.6711349433266, "alt_km": 414.02900974431395, "timestamp": "2025-12-05T18:53:12.094952+00:00", "meta": {"OBJECT_NAME": "STARLINK-35828", "OBJECT_ID": "2025-254D", "EPOCH": "2025-12-05T06:00:02.000160", "MEAN_MOTION": 15.5524919, "ECCENTRICITY": 0.00013646, "INCLINATION": 53.1593, "RA_OF_ASC_NODE": 312.4325, "ARG_OF_PERICENTER": 81.8991, "MEAN_ANOMALY": 79.2573, "EPHEMERIS_TYPE": 0, "CLASSIFICATION_TYPE": "U", "NORAD_CAT_ID": 66351, "ELEMENT_SET_NO": 999, "REV_AT_EPOCH": 569, "BSTAR": -0.034172288, "MEAN_MOTION_DOT": -0.02095013, "MEAN_MOTION_DDOT": 0}, "tle": {"line1": "1 66351U 25254D   25339.25002315 -.02095013  00000+0 -34172-1 0  9998", "line2": "2 66351  53.1593 312.4325 0001364  81.8991  79.2573 15.55249190  5693"}}, "geometry": {"type": "Point", "coordinates": [-113.6711349433266, -50.04931539219671]}}, {"type": "Feature", "properties": {"norad_id": 66352, "name": "STARLINK-35850", "group": "last-30-days", "lat": -49.33470150117583, "lon": -110.9342452570901, "alt_km": 414.152661686413, "timestamp": "2025-12-05T18:53:12.094962+00:00", "meta": {"OBJECT_NAME": "STARLINK-35850", "OBJECT_ID": "2025-254E", "EPOCH": "2025-12-05T06:00:02.000160", "MEAN_MOTION": 15.55250596, "ECCENTRICITY": 0.00015294, "INCLINATION": 53.1594, "RA_OF_ASC_NODE": 312.4282, "ARG_OF_PERICENTER": 89.162, "MEAN_ANOMALY": 73.9109, "EPHEMERIS_TYPE": 0, "CLASSIFICATION_TYPE": "U", "NORAD_CAT_ID": 66352, "ELEMENT_SET_NO": 999, "REV_AT_EPOCH": 567, "BSTAR": -0.034236801, "MEAN_MOTION_DOT": -0.0209874, "MEAN_MOTION_DDOT": 0}, "tle": {"line1": "1 66352U 25254E   25339.25002315 -.02098740  00000+0 -34237-1 0  9991", "line2": "2 66352  53.1594 312.4282 0001529  89.1620  73.9109 15.55250596  5676"}}, "geometry": {"type": "Point", "coordinates": [-110.9342452570901, -49.33470150117583]}}, {"type": "Feature", "properties": {"norad_id": 66353, "name": "STARLINK-35869", "group": "last-30-days", "lat": -48.555735233768296, "lon": -108.27499990187327, "alt_km": 413.9510563441827, "timestamp": "2025-12-05T18:53:12.094972+00:00", "meta": {"OBJECT_NAME": "STARLINK-35869", "OBJECT_ID": "2025-254F", "EPOCH": "2025-12-05T06:00:02.000160", "MEAN_MOTION": 15.55248154, "ECCENTRICITY": 0.00013653, "INCLINATION": 53.1594, "RA_OF_ASC_NODE": 312.4238, "ARG_OF_PERICENTER": 82.5449, "MEAN_ANOMALY": 82.4432, "EPHEMERIS_TYPE": 0, "CLASSIFICATION_TYPE": "U", "NORAD_CAT_ID": 66353, "ELEMENT_SET_NO": 999, "REV_AT_EPOCH": 571, "BSTAR": -0.034103991, "MEAN_MOTION_DOT": -0.02091214, "MEAN_MOTION_DDOT": 0}, "tle": {"line1": "1 66353U 25254F   25339.25002315 -.02091214  00000+0 -34104-1 0  9994", "line2": "2 66353  53.1594 312.4238 0001365  82.5449  82.4432 15.55248154  5718"}}, "geometry": {"type": "Point", "coordinates": [-108.27499990187327, -48.555735233768296]}}, {"type": "Feature", "properties": {"norad_id": 66354, "name": "STARLINK-35895", "group": "last-30-days", "lat": 38.110133545936996, "lon": -13.659231233977348, "alt_km": 412.9253438787782, "timestamp": "2025-12-05T18:53:12.094982+00:00", "meta": {"OBJECT_NAME": "STARLINK-35895", "OBJECT_ID": "2025-254G", "EPOCH": "2025-12-05T06:00:02.000160", "MEAN_MOTION": 15.49323344, "ECCENTRICITY": 0.00013587, "INCLINATION": 53.16, "RA_OF_ASC_NODE": 312.8886, "ARG_OF_PERICENTER": 67.0472, "MEAN_ANOMALY": 227.0847, "EPHEMERIS_TYPE": 0, "CLASSIFICATION_TYPE": "U", "NORAD_CAT_ID": 66354, "ELEMENT_SET_NO": 999, "REV_AT_EPOCH": 571, "BSTAR": -0.00022335608, "MEAN_MOTION_DOT": -0.00012856, "MEAN_MOTION_DDOT": 0}, "tle": {"line1": "1 66354U 25254G   25339.25002315 -.00012856  00000+0 -22336-3 0  9994", "line2": "2 66354  53.1600 312.8886 0001358  67.0472 227.0847 15.49323344  5711"}}, "geometry": {"type": "Point", "coordinates": [-13.659231233977348, 38.110133545936996]}}, {"type": "Feature", "properties": {"norad_id": 66355, "name": "STARLINK-35861", "group": "last-30-days", "lat": -46.82602866868356, "lon": -103.21706007835105, "alt_km": 413.96048386418624, "timestamp": "2025-12-05T18:53:12.094993+00:00", "meta": {"OBJECT_NAME": "STARLINK-35861", "OBJECT_ID": "2025-254H", "EPOCH": "2025-12-05T06:00:02.000160", "MEAN_MOTION": 15.55249324, "ECCENTRICITY": 0.00015176, "INCLINATION": 53.1593, "RA_OF_ASC_NODE": 312.4153, "ARG_OF_PERICENTER": 80.3155, "MEAN_ANOMALY": 88.5102, "EPHEMERIS_TYPE": 0, "CLASSIFICATION_TYPE": "U", "NORAD_CAT_ID": 66355, "ELEMENT_SET_NO": 999, "REV_AT_EPOCH": 571, "BSTAR": -0.034221021, "MEAN_MOTION_DOT": -0.02097783, "MEAN_MOTION_DDOT": 0}, "tle": {"line1": "1 66355U 25254H   25339.25002315 -.02097783  00000+0 -34221-1 0  9993", "line2": "2 66355  53.1593 312.4153 0001517  80.3155  88.5102 15.55249324  5715"}}, "geometry": {"type": "Point", "coordinates": [-103.21706007835105, -46.82602866868356]}}, {"type": "Feature", "properties": {"norad_id": 66356, "name": "STARLINK-35851", "group": "last-30-days", "lat": -45.880359938032484, "lon": -100.81212641655834, "alt_km": 414.02368465110703, "timestamp": "2025-12-05T18:53:12.095005+00:00", "meta": {"OBJECT_NAME": "STARLINK-35851", "OBJECT_ID": "2025-254J", "EPOCH": "2025-12-05T06:00:02.000160", "MEAN_MOTION": 15.55248984, "ECCENTRICITY": 0.00016484, "INCLINATION": 53.1594, "RA_OF_ASC_NODE": 312.4107, "ARG_OF_PERICENTER": 85.1848, "MEAN_ANOMALY": 85.5558, "EPHEMERIS_TYPE": 0, "CLASSIFICATION_TYPE": "U", "NORAD_CAT_ID": 66356, "ELEMENT_SET_NO": 999, "REV_AT_EPOCH": 571, "BSTAR": -0.034187691, "MEAN_MOTION_DOT": -0.02096029, "MEAN_MOTION_DDOT": 0}, "tle": {"line1": "1 66356U 25254J   25339.25002315 -.02096029  00000+0 -34188-1 0  9998", "line2": "2 66356  53.1594 312.4107 0001648  85.1848  85.5558 15.55248984  5716"}}, "geometry": {"type": "Point", "coordinates": [-100.81212641655834, -45.880359938032484]}}]}